line1,line2,validFromUtcTime
1 00000U 00000E   26001.00000000  .00000000  00000-0  27772-4 0    01,2 00000  88.9258 150.3354 0010081 269.8410 330.0337 13.55296079    09,2026-01-01T00:00:00Z
1 00000U 00000E   26002.00000000  .00000000  00000-0  27772-4 0    02,2 00000  88.9258 150.2261 0010081 266.9307 169.0981 13.55296117    06,2026-01-02T00:00:00Z
